[{"OBJECT_NAME":"STARLINK-31275","OBJECT_ID":"2024-045V","EPOCH":"2026-03-09T18:54:30.335904","MEAN_MOTION":15.27567189,"ECCENTRICITY":0.00019977,"INCLINATION":43.0053,"RA_OF_ASC_NODE":92.2241,"ARG_OF_PERICENTER":270.678,"MEAN_ANOMALY":89.3843,"EPHEMERIS_TYPE":0,"CLASSIFICATION_TYPE":"U","NORAD_CAT_ID":59197,"ELEMENT_SET_NO":999,"REV_AT_EPOCH":11317,"BSTAR":1.1677939e-5,"MEAN_MOTION_DOT":5.9e-7,"MEAN_MOTION_DDOT":0},{"OBJECT_NAME":"KSLV-II R\/B","OBJECT_ID":"2023-072H","EPOCH":"2026-03-09T20:13:26.441760","MEAN_MOTION":15.33109439,"ECCENTRICITY":0.00241884,"INCLINATION":97.4991,"RA_OF_ASC_NODE":274.152,"ARG_OF_PERICENTER":318.2938,"MEAN_ANOMALY":41.646,"EPHEMERIS_TYPE":0,"CLASSIFICATION_TYPE":"U","NORAD_CAT_ID":56750,"ELEMENT_SET_NO":999,"REV_AT_EPOCH":15516,"BSTAR":0.00028309532,"MEAN_MOTION_DOT":9.057e-5,"MEAN_MOTION_DDOT":0}]
